{
  "norad_id": 65463,
  "name": "STARLINK-35111",
  "history": [
    {
      "epoch": "2026-03-28T14:32:11.290272Z",
      "apogee_km": 476.21856708498217,
      "perigee_km": 474.1707915791985,
      "latitude_deg": 6.641505736938234e-05,
      "longitude_deg": 125.97717928369556,
      "height_km": 475.297020992237,
      "semi_major_axis_km": 6853.33167933209,
      "eccentricity": 0.0001494,
      "inclination_deg": 53.1582,
      "raan_deg": 170.0479,
      "arg_perigee_deg": 38.9748,
      "mean_anomaly_deg": 321.1361,
      "mean_motion_rev_day": 15.30206829
    }
  ]
}